IRIDIUM 150             
1 43257U 18030J   23310.76132937  .00000711  00000+0  24672-3 0  9992
2 43257  86.3955 328.9483 0002215 101.6422 258.5022 14.34222210293506
IRIDIUM 143             
1 43258U 18030K   23311.16093309  .00000695  00000+0  24112-3 0  9997
2 43258  86.3959 328.8358 0002442  94.9527 265.1947 14.34220103293524
IRIDIUM 161             
1 43478U 18047C   23311.49386450  .00000394  00000+0  11113-3 0  9990
2 43478  86.4459 126.6698 0002007  90.4279 269.7152 14.43279002287722
IRIDIUM 152             
1 43479U 18047D   23310.92434733  .00000245  00000+0  80580-4 0  9996
2 43479  86.3931 126.7676 0002330  89.3918 270.7545 14.34219294285857
IRIDIUM 147             
1 43480U 18047E   23310.93067309  .00000291  00000+0  96968-4 0  9998
2 43480  86.3935 126.7536 0001849  86.6763 273.4645 14.34218400285859
IRIDIUM 110             
1 43481U 18047F   23311.00678109  .00000298  00000+0  99447-4 0  9996
2 43481  86.3936 126.7885 0001735  89.0865 271.0530 14.34217933285859
IRIDIUM 162             
1 43482U 18047G   23311.48759662  .00000389  00000+0  10959-3 0  9994
2 43482  86.4457 126.5754 0002028  90.5702 269.5731 14.43284476287713
IRIDIUM 160             
1 43569U 18061A   23311.16192221  .00000788  00000+0  27418-3 0  9994
2 43569  86.3934  95.0797 0002227  84.9431 275.2019 14.34220270276771
